BEIJING 1               
1 28890U 05043A   22302.86972042  .00000257  00000+0  61065-4 0  9991
2 28890  98.1353  62.9247 0016426 112.0281 248.2660 14.61526032906779
HJ-1A                   
1 33320U 08041A   22302.95030190  .00000426  00000+0  65666-4 0  9994
2 33320  97.6669 329.6357 0021614 150.9113 209.3305 14.77962420762251
HJ-1B                   
1 33321U 08041B   22302.96944919  .00000915  00000+0  13253-3 0  9996
2 33321  97.6831 333.4890 0034289 170.3446 189.8431 14.77973180762252
YAOGAN 4                
1 33446U 08061A   22302.81319978  .00000907  00000+0  13380-3 0  9993
2 33446  97.8277 238.9198 0017540  61.6844 298.6134 14.77540738749434
DEIMOS-1                
1 35681U 09041A   22302.91214575  .00000376  00000+0  67003-4 0  9995
2 35681  97.6986 146.9959 0002382 118.6966 241.4491 14.72151920711551
UK-DMC 2                
1 35683U 09041C   22302.92667764  .00000614  00000+0  10614-3 0  9990
2 35683  97.7083 108.8207 0001251 101.1250 259.0101 14.71560604711287
RISAT 1                 
1 38248U 12017A   22302.91282759  .00006126  00000+0  35232-3 0  9990
2 38248  97.5518 312.8637 0004944 137.2303 222.9313 15.12821951579167
DMC3-FM1                
1 40715U 15032A   22302.81071127  .00000492  00000+0  68109-4 0  9996
2 40715  97.8263 186.8519 0007467  82.0929 278.1133 14.82248467393192
DMC3-FM2                
1 40716U 15032B   22302.96891331  .00000506  00000+0  69920-4 0  9998
2 40716  97.8309 187.7180 0009406  84.4830 275.7457 14.82241482393226
DMC3-FM3                
1 40717U 15032C   22302.92198361  .00000487  00000+0  67471-4 0  9995
2 40717  97.8341 188.6435 0011338  82.9630 277.2878 14.82268782393219
